[{"OBJECT_NAME":"JILIN-1 GAOFEN 2A","OBJECT_ID":"2019-075A","EPOCH":"2026-03-09T21:52:13.646784","MEAN_MOTION":15.36418896,"ECCENTRICITY":0.00077248,"INCLINATION":97.5004,"RA_OF_ASC_NODE":150.5825,"ARG_OF_PERICENTER":84.5784,"MEAN_ANOMALY":275.6341,"EPHEMERIS_TYPE":0,"CLASSIFICATION_TYPE":"U","NORAD_CAT_ID":44777,"ELEMENT_SET_NO":999,"REV_AT_EPOCH":34962,"BSTAR":0.00053427747,"MEAN_MOTION_DOT":0.00018939,"MEAN_MOTION_DDOT":0},{"OBJECT_NAME":"STARLINK-32955","OBJECT_ID":"2025-039P","EPOCH":"2026-03-09T22:00:01.999584","MEAN_MOTION":15.35643396,"ECCENTRICITY":0.00092359,"INCLINATION":43.0013,"RA_OF_ASC_NODE":10.1549,"ARG_OF_PERICENTER":201.6454,"MEAN_ANOMALY":283.0913,"EPHEMERIS_TYPE":0,"CLASSIFICATION_TYPE":"U","NORAD_CAT_ID":63117,"ELEMENT_SET_NO":999,"REV_AT_EPOCH":575,"BSTAR":0.0033239594,"MEAN_MOTION_DOT":0.00119453,"MEAN_MOTION_DDOT":0}]
